{"fetched_at":"2026-03-29T16:36:15Z","count":15609,"tles":[{"name":"LYRA-4","line1":"1 64691U 25140A   26087.88937270  .00001685  00000+0  27096-3 0  9991","line2":"2 64691  95.9932 229.2461 0014372 112.5375 247.7360 14.72292734 40242","category":"Other"}]}